{
    "type": "FeatureCollection",
    "features": [
      {
        "type": "Feature",
        "properties": { "NOMBRE_ENT": "Garzón" },
        "geometry": {
          "type": "Polygon",
          "coordinates": [[[ -75.6, 2.2 ], [ -75.5, 2.2 ], [ -75.5, 2.3 ], [ -75.6, 2.3 ], [ -75.6, 2.2 ]]]
        }
      },
      {
        "type": "Feature",
        "properties": { "NOMBRE_ENT": "Gigante" },
        "geometry": {
          "type": "Polygon",
          "coordinates": [[[ -75.7, 2.3 ], [ -75.6, 2.3 ], [ -75.6, 2.4 ], [ -75.7, 2.4 ], [ -75.7, 2.3 ]]]
        }
      }
    ]
  }